HST                     
1 20580U 90037B   26177.92228015  .00007114  00000+0  22414-3 0  9994
2 20580  28.4734  14.0366 0001406 260.4690  99.5747 15.30856861790069
POLAR                   
1 23802U 96013A   26176.50959110  .00000140  00000+0  00000+0 0  9999
2 23802  79.8647 226.9545 6478686 208.7930  90.3879  1.29846072144975
SWAS                    
1 25560U 98071A   26178.21965045  .00002575  00000+0  16598-3 0  9999
2 25560  69.8943 201.6459 0008747 249.7815 110.2409 15.09671396498788
CXO                     
1 25867U 99040B   26179.95532601  .00000592  00000+0  00000+0 0  9990
2 25867  56.3077 116.3625 7815439 310.1470   0.3486  0.37796038 17366
XMM-NEWTON              
1 25989U 99066A   26179.31942051  .00000041  00000+0  00000+0 0  9996
2 25989  64.4273 282.8431 4670867  64.6865   0.1170  0.50127671 23061
TERRA                   
1 25994U 99068A   26178.15313075  .00000367  00000+0  83645-4 0  9995
2 25994  97.9451 227.3041 0002367 161.0698 261.3085 14.61110434411066
CLUSTER II-FM7 (SAMBA)  
1 26410U 00041A   26179.29571931  .00010019  00000+0  00000+0 0  9999
2 26410 149.8957  52.7269 9065028 270.0741 359.5894  0.44873944 20367
CLUSTER II-FM8 (TANGO)  
1 26464U 00045B   26175.19428720  .00005465  00000+0  00000+0 0  9993
2 26464 150.1276  53.1676 9064570 270.3044   2.6399  0.44426562 20346
ODIN                    
1 26702U 01007A   26178.11710015  .00233497  00000+0  12556-2 0  9993
2 26702  97.3804 219.7209 0006021 134.5715 225.6044 15.79565011390965
TIMED                   
1 26998U 01055B   26178.17766613  .00000947  00000+0  89547-4 0  9992
2 26998  74.0663 214.9026 0001617 322.2223  37.8848 14.95311874332310
CORIOLIS                
1 27640U 03001A   26177.99181836  .00000104  00000+0  69276-4 0  9999
2 27640  98.7127 184.7269 0013951 179.8451 180.2732 14.19947361215619
SORCE                   
1 27651U 03004A   26177.76942547  .00002335  00000+0  17759-3 0  9999
2 27651  39.9889 207.0055 0016326 123.2582 236.9779 15.03753763273341
MOST                    
1 27843U 03031D   26177.99643058  .00000071  00000+0  52664-4 0  9992
2 27843  98.7043 185.5854 0009085 218.8177 141.2348 14.21324431192100
SCISAT 1                
1 27858U 03036A   26178.21999403  .00000621  00000+0  83871-4 0  9992
2 27858  73.9290 151.4089 0008216 221.5210 138.5343 14.81458340232934
SWIFT                   
1 28485U 04047A   26178.17024517  .00060198  00000+0  48202-3 0  9995
2 28485  20.5519 107.8365 0001322  76.6381 283.4212 15.69267303188438
HINODE (SOLAR-B)        
1 29479U 06041A   26177.99632514  .00000688  00000+0  12664-3 0  9997
2 29479  98.0544 194.0043 0015985 255.7906 104.1523 14.68635413 56318
SHIJIAN-6 02A (SJ-6 02A)
1 29505U 06046A   26178.18373233  .00006728  00000+0  34329-3 0  9997
2 29505  97.6361 219.3250 0004704 103.0706 257.1052 15.17055648 73788
SHIJIAN-6 02B (SJ-6 02B)
1 29506U 06046B   26178.21002020  .00001654  00000+0  13269-3 0  9998
2 29506  97.7161 207.2071 0015250  32.3829 327.8328 15.01401239 72248
FGRST (GLAST)           
1 33053U 08029A   26178.18118683  .00002914  00000+0  10338-3 0  9996
2 33053  25.5810 135.0826 0008526  84.9877 275.1634 15.23986556997368
SDO                     
1 36395U 10005A   26178.19136469 -.00000095  00000+0  00000+0 0  9998
2 36395  34.6718  86.1902 0001543  47.5702 108.2410  1.00270707 60164
CRYOSAT 2               
1 36508U 10013A   26178.21276378  .00000118  00000+0  28513-4 0  9999
2 36508  92.0360 279.7386 0002134  94.7506 265.3945 14.51902302859538
X-SAT                   
1 37389U 11015C   26178.19467454  .00000235  00000+0  11764-3 0  9993
2 37389  98.3508 154.7413 0013273 318.3095  41.7073 14.25209635789109
GCOM-W1 (SHIZUKU)       
1 38337U 12025A   26178.11740455  .00000436  00000+0  10682-3 0  9997
2 38337  98.2022 118.5228 0001631  69.4576 300.9196 14.57133170750488
NUSTAR                  
1 38358U 12031A   26178.25002315  .00005347  00000+0  27602-3 0  9994
2 38358   6.0283 318.6726 0009096 261.7056 275.9656 15.08899835  1302
NEOSSAT                 
1 39089U 13009D   26178.10499345  .00000144  00000+0  64670-4 0  9996
2 39089  98.4180 357.9019 0010322 211.5730 148.4838 14.35829741698162
BRITE-AUSTRIA           
1 39091U 13009F   26178.02903378  .00000165  00000+0  70819-4 0  9991
2 39091  98.3998 357.2212 0009625 204.5523 155.5206 14.36545705698462
IRIS                    
1 39197U 13033A   26178.13129825  .00001023  00000+0  12321-3 0  9991
2 39197  97.9325  17.3771 0023030 287.6559  72.2141 14.85903528701855
HISAKI (SPRINT-A)       
1 39253U 13049A   26177.99797007  .00000110  00000+0  62518-4 0  9997
2 39253  29.7172 170.1304 0136854  96.3942 265.2233 13.55545529632758
CASSIOPE                
1 39265U 13055A   26178.13100466  .00048012 -35164-6  52060-3 0  9991
2 39265  80.9148  54.6393 0288787  29.0201 332.6739 15.26116197669183
STSAT-3                 
1 39422U 13066G   26178.16709984  .00002839  00000+0  21638-3 0  9998
2 39422  97.6215 147.8949 0010233  16.8025 343.3538 15.02810190685707
SWARM B                 
1 39451U 13067A   26178.15012396  .00003590  00000+0  12786-3 0  9993
2 39451  87.7440 339.2892 0003015  81.7926 278.3665 15.28610464684767
